CAS-2T & KS-1Q          
1 41847U 16066G   20178.39099748  .00000047  00000-0  17691-4 0  9999
2 41847  98.6531 228.9986 0365267 202.1316 156.3751 14.38073153190706
NAYIF-1 (EO-88)         
1 42017U 17008BX  20178.46406042  .00000932  00000-0  38462-4 0  9995
2 42017  97.3594 245.8949 0004566 297.4720  62.6055 15.26520750186929
MAX VALIER SAT          
1 42778U 17036P   20178.41139386  .00000567  00000-0  27266-4 0  9993
2 42778  97.3041 231.7994 0011959 359.7301   0.3927 15.22635497167090
RADFXSAT (FOX-1B)       
1 43017U 17073E   20178.59094257  .00000504  00000-0  44413-4 0  9991
2 43017  97.7228  90.4737 0257631  20.9281 340.2248 14.78949363140516
FOX-1D (AO-92)          
1 43137U 18004AC  20178.47861156  .00000639  00000-0  29196-4 0  9996
2 43137  97.4453 249.5784 0009950  33.6072 326.5795 15.24139450136422
DIWATA-2B               
1 43678U 18084H   20178.59739078 -.00000298  00000-0 -23942-4 0  9990
2 43678  97.8862 297.0007 0010689 140.9691 219.2285 14.91633046 90385
ES'HAIL 2               
1 43700U 18090A   20178.31774694  .00000144  00000-0  00000+0 0  9999
2 43700   0.0093  47.6180 0001176  64.6771 302.7673  1.00271854  6046
FOX-1CLIFF (AO-95)      
1 43770U 18099N   20178.47739939  .00000593  00000-0  59418-4 0  9995
2 43770  97.7055 249.7008 0015181 161.3298 198.8482 14.94995139 85267
ITASAT 1                
1 43786U 18099AE  20178.47228030  .00000414  00000-0  42633-4 0  9990
2 43786  97.7068 250.1217 0015960 155.6647 204.5331 14.95332341 85286
JY1SAT (JO-97)          
1 43803U 18099AX  20178.48575039  .00000640  00000-0  62860-4 0  9990
2 43803  97.7032 249.9516 0015924 155.4800 204.7181 14.95512703 85281
PSAT2 (NO-104)          
1 44354U 19036R   20178.55102475  .00005782  00000-0  81431-4 0  9999
2 44354  28.5300 320.8516 0364301  48.2360 314.8782 15.03549167 55199
BRICSAT2 (NO-103)       
1 44355U 19036S   20178.52659982  .00010705  00000-0  14688-3 0  9997
2 44355  28.5297 311.8605 0343006  62.8349 300.6785 15.08961968 55280
JAISAT-1                
1 44419U 19038F   20178.41875737  .00000499  00000-0  31989-4 0  9999
2 44419  97.5390 139.9092 0023271  98.9522 261.4345 15.12792011 53956
DUCHIFAT-3              
1 44854U 19089C   20178.35334087  .00000147  00000-0  18322-4 0  9995
2 44854  36.9680  45.7555 0006778 138.6056 221.5202 14.99073430 29631
RS-44 & BREEZE-KM R/B   
1 44909U 19096E   20178.58394359  .00000012  00000-0  43395-5 0  9997
2 44909  82.5212 349.2452 0216947 204.9003 154.1509 12.79708023 23351
ORBITAL FACTORY 2 (OF-2)
1 45113U 19071C   20178.41290284  .00001082  00000-0  44589-4 0  9995
2 45113  51.6450 320.2669 0013601  90.4073 269.8467 15.33381533 22505
HUSKYSAT-1              
1 45119U 19071J   20178.39004342  .00000984  00000-0  41339-4 0  9996
2 45119  51.6444 320.1153 0012880  86.9315 273.3141 15.33596205 22499
